{
  "links" : {
    "next" : "https://api.nasa.gov/neo/rest/v1/feed?start_date=2015-11-23&end_date=2015-11-23&detailed=true&api_key=t0TVs3DtDT2H8Oy2Zy8m2eVrNsAVKAexjcZXUckd",
    "prev" : "https://api.nasa.gov/neo/rest/v1/feed?start_date=2015-11-21&end_date=2015-11-21&detailed=true&api_key=t0TVs3DtDT2H8Oy2Zy8m2eVrNsAVKAexjcZXUckd",
    "self" : "https://api.nasa.gov/neo/rest/v1/feed?start_date=2015-11-22&end_date=2015-11-22&detailed=true&api_key=t0TVs3DtDT2H8Oy2Zy8m2eVrNsAVKAexjcZXUckd"
  },
  "element_count" : 7,
  "near_earth_objects" : {
    "2015-11-22" : [ {
      "links" : {
        "self" : "https://api.nasa.gov/neo/rest/v1/neo/2297274?api_key=t0TVs3DtDT2H8Oy2Zy8m2eVrNsAVKAexjcZXUckd"
      },
      "neo_reference_id" : "2297274",
      "name" : "297274 (1996 SK)",
      "nasa_jpl_url" : "http://ssd.jpl.nasa.gov/sbdb.cgi?sstr=2297274",
      "absolute_magnitude_h" : 16.8,
      "estimated_diameter" : {
        "kilometers" : {
          "estimated_diameter_min" : 1.1602590821,
          "estimated_diameter_max" : 2.5944181791
        },
        "meters" : {
          "estimated_diameter_min" : 1160.2590820944,
          "estimated_diameter_max" : 2594.4181790745
        },
        "miles" : {
          "estimated_diameter_min" : 0.7209513461,
          "estimated_diameter_max" : 1.6120962183
        },
        "feet" : {
          "estimated_diameter_min" : 3806.6244068985,
          "estimated_diameter_max" : 8511.8709386348
        }
      },
      "is_potentially_hazardous_asteroid" : true,
      "close_approach_data" : [ {
        "close_approach_date" : "2015-11-22",
        "epoch_date_close_approach" : 1448179200000,
        "relative_velocity" : {
          "kilometers_per_second" : "16.5722028243",
          "kilometers_per_hour" : "59659.9301673533",
          "miles_per_hour" : "37070.3604975979"
        },
        "miss_distance" : {
          "astronomical" : "0.3439472171",
          "lunar" : "133.7954711914",
          "kilometers" : "51453772",
          "miles" : "31971892"
        },
        "orbiting_body" : "Earth"
      } ],
      "orbital_data" : {
        "orbit_id" : "78",
        "orbit_determination_date" : "2017-04-06 09:24:10",
        "orbit_uncertainty" : "0",
        "minimum_orbit_intersection" : ".00427586",
        "jupiter_tisserand_invariant" : "2.968",
        "epoch_osculation" : "2458000.5",
        "eccentricity" : ".7944765409042296",
        "semi_major_axis" : "2.433651929058319",
        "inclination" : "1.963769055063299",
        "ascending_node_longitude" : "197.4196042934239",
        "orbital_period" : "1386.711516978667",
        "perihelion_distance" : ".5001725626951602",
        "perihelion_argument" : "284.3421253284591",
        "aphelion_distance" : "4.367131295421478",
        "perihelion_time" : "2457379.196844483485",
        "mean_anomaly" : "161.2946407723435",
        "mean_motion" : ".2596069878934583",
        "equinox" : "J2000"
      }
    }, {
      "links" : {
        "self" : "https://api.nasa.gov/neo/rest/v1/neo/2452397?api_key=t0TVs3DtDT2H8Oy2Zy8m2eVrNsAVKAexjcZXUckd"
      },
      "neo_reference_id" : "2452397",
      "name" : "452397 (2002 PD130)",
      "nasa_jpl_url" : "http://ssd.jpl.nasa.gov/sbdb.cgi?sstr=2452397",
      "absolute_magnitude_h" : 20.4,
      "estimated_diameter" : {
        "kilometers" : {
          "estimated_diameter_min" : 0.2210828104,
          "estimated_diameter_max" : 0.4943561926
        },
        "meters" : {
          "estimated_diameter_min" : 221.0828103591,
          "estimated_diameter_max" : 494.3561926196
        },
        "miles" : {
          "estimated_diameter_min" : 0.137374447,
          "estimated_diameter_max" : 0.3071786018
        },
        "feet" : {
          "estimated_diameter_min" : 725.3373275385,
          "estimated_diameter_max" : 1621.9035709942
        }
      },
      "is_potentially_hazardous_asteroid" : false,
      "close_approach_data" : [ {
        "close_approach_date" : "2015-11-22",
        "epoch_date_close_approach" : 1448179200000,
        "relative_velocity" : {
          "kilometers_per_second" : "4.6825516293",
          "kilometers_per_hour" : "16857.1858654417",
          "miles_per_hour" : "10474.3997395574"
        },
        "miss_distance" : {
          "astronomical" : "0.4607460756",
          "lunar" : "179.2302246094",
          "kilometers" : "68926632",
          "miles" : "42829024"
        },
        "orbiting_body" : "Earth"
      } ],
      "orbital_data" : {
        "orbit_id" : "32",
        "orbit_determination_date" : "2017-04-06 09:20:05",
        "orbit_uncertainty" : "0",
        "minimum_orbit_intersection" : ".286779",
        "jupiter_tisserand_invariant" : "3.882",
        "epoch_osculation" : "2458000.5",
        "eccentricity" : ".3437074751681465",
        "semi_major_axis" : "1.881312191101784",
        "inclination" : "8.785378864375788",
        "ascending_node_longitude" : "269.1389761254588",
        "orbital_period" : "942.5181704072722",
        "perihelion_distance" : "1.234691127895136",
        "perihelion_argument" : "105.2422617613388",
        "aphelion_distance" : "2.527933254308432",
        "perihelion_time" : "2458219.457420682859",
        "mean_anomaly" : "276.3680086806514",
        "mean_motion" : ".3819555010217364",
        "equinox" : "J2000"
      }
    }, {
      "links" : {
        "self" : "https://api.nasa.gov/neo/rest/v1/neo/3332535?api_key=t0TVs3DtDT2H8Oy2Zy8m2eVrNsAVKAexjcZXUckd"
      },
      "neo_reference_id" : "3332535",
      "name" : "(2006 JY26)",
      "nasa_jpl_url" : "http://ssd.jpl.nasa.gov/sbdb.cgi?sstr=3332535",
      "absolute_magnitude_h" : 28.4,
      "estimated_diameter" : {
        "kilometers" : {
          "estimated_diameter_min" : 0.0055533491,
          "estimated_diameter_max" : 0.0124176661
        },
        "meters" : {
          "estimated_diameter_min" : 5.5533491158,
          "estimated_diameter_max" : 12.4176661257
        },
        "miles" : {
          "estimated_diameter_min" : 0.0034506901,
          "estimated_diameter_max" : 0.0077159776
        },
        "feet" : {
          "estimated_diameter_min" : 18.2196499131,
          "estimated_diameter_max" : 40.740375732
        }
      },
      "is_potentially_hazardous_asteroid" : false,
      "close_approach_data" : [ {
        "close_approach_date" : "2015-11-22",
        "epoch_date_close_approach" : 1448179200000,
        "relative_velocity" : {
          "kilometers_per_second" : "17.7641204939",
          "kilometers_per_hour" : "63950.8337778755",
          "miles_per_hour" : "39736.5611327027"
        },
        "miss_distance" : {
          "astronomical" : "0.4911561982",
          "lunar" : "191.059753418",
          "kilometers" : "73475920",
          "miles" : "45655820"
        },
        "orbiting_body" : "Earth"
      } ],
      "orbital_data" : {
        "orbit_id" : "9",
        "orbit_determination_date" : "2017-04-06 09:08:40",
        "orbit_uncertainty" : "3",
        "minimum_orbit_intersection" : ".000330436",
        "jupiter_tisserand_invariant" : "6.029",
        "epoch_osculation" : "2458000.5",
        "eccentricity" : ".08300439041661013",
        "semi_major_axis" : "1.010232593169178",
        "inclination" : "1.439038907726933",
        "ascending_node_longitude" : "43.46608958120395",
        "orbital_period" : "370.8775035408209",
        "perihelion_distance" : ".9263788525941795",
        "perihelion_argument" : "273.6429888422383",
        "aphelion_distance" : "1.094086333744178",
        "perihelion_time" : "2458024.134950738917",
        "mean_anomaly" : "337.058241104469",
        "mean_motion" : ".9706708995909114",
        "equinox" : "J2000"
      }
    } ]
  }
}